{
  "type": "FeatureCollection",
  "features": [
    {
      "type": "Feature",
      "properties": {
        "norad_id": 2807,
        "name": "OPS 7218 (TRANSIT 16)",
        "group": "nnss",
        "lat": 1.423788476950856,
        "lon": 174.05623899255366,
        "alt_km": 1064.3539664727032,
        "timestamp": "2025-12-11T07:02:23.998706+00:00",
        "meta_object_name": "OPS 7218 (TRANSIT 16)",
        "meta_object_id": "1967-048A",
        "meta_epoch": "2025-12-10T18:34:20.767872",
        "meta_mean_motion": 13.50721655,
        "meta_eccentricity": 0.00218751,
        "meta_inclination": 89.6732,
        "meta_ra_of_asc_node": 354.0815,
        "meta_arg_of_pericenter": 119.3253,
        "meta_mean_anomaly": 54.3895,
        "meta_ephemeris_type": 0,
        "meta_classification_type": "U",
        "meta_norad_cat_id": 2807,
        "meta_element_set_no": 999,
        "meta_rev_at_epoch": 88249,
        "meta_bstar": 0.00020314284,
        "meta_mean_motion_dot": 1.41e-06,
        "meta_mean_motion_ddot": 0,
        "tle_line1": "1 02807U 67048A   25344.77385148  .00000141  00000+0  20314-3 0  9991",
        "tle_line2": "2 02807  89.6732 354.0815 0021875 119.3253  54.3895 13.50721655882497"
      },
      "geometry": {
        "type": "Point",
        "coordinates": [
          174.05623899255366,
          1.423788476950856
        ]
      }
    },
    {
      "type": "Feature",
      "properties": {
        "norad_id": 2965,
        "name": "OPS 4947 (TRANSIT 17)",
        "group": "nnss",
        "lat": -48.507820533228646,
        "lon": -154.60509074046317,
        "alt_km": 1032.7718966337516,
        "timestamp": "2025-12-11T07:02:23.998728+00:00",
        "meta_object_name": "OPS 4947 (TRANSIT 17)",
        "meta_object_id": "1967-092A",
        "meta_epoch": "2025-12-10T21:54:04.522176",
        "meta_mean_motion": 13.53452762,
        "meta_eccentricity": 0.00460783,
        "meta_inclination": 89.2497,
        "meta_ra_of_asc_node": 24.575,
        "meta_arg_of_pericenter": 239.9876,
        "meta_mean_anomaly": 294.3166,
        "meta_ephemeris_type": 0,
        "meta_classification_type": "U",
        "meta_norad_cat_id": 2965,
        "meta_element_set_no": 999,
        "meta_rev_at_epoch": 87072,
        "meta_bstar": 0.00023079491,
        "meta_mean_motion_dot": 1.67e-06,
        "meta_mean_motion_ddot": 0,
        "tle_line1": "1 02965U 67092A   25344.91255234  .00000167  00000+0  23079-3 0  9992",
        "tle_line2": "2 02965  89.2497  24.5750 0046078 239.9876 294.3166 13.53452762870728"
      },
      "geometry": {
        "type": "Point",
        "coordinates": [
          -154.60509074046317,
          -48.507820533228646
        ]
      }
    },
    {
      "type": "Feature",
      "properties": {
        "norad_id": 3133,
        "name": "OPS 7034 (TRANSIT 18)",
        "group": "nnss",
        "lat": 26.963012800980326,
        "lon": -86.37949722811369,
        "alt_km": 1110.94686576377,
        "timestamp": "2025-12-11T07:02:23.998743+00:00",
        "meta_object_name": "OPS 7034 (TRANSIT 18)",
        "meta_object_id": "1968-012A",
        "meta_epoch": "2025-12-10T18:37:36.266880",
        "meta_mean_motion": 13.51564951,
        "meta_eccentricity": 0.00736582,
        "meta_inclination": 90.0278,
        "meta_ra_of_asc_node": 273.6332,
        "meta_arg_of_pericenter": 174.8207,
        "meta_mean_anomaly": 217.6112,
        "meta_ephemeris_type": 0,
        "meta_classification_type": "U",
        "meta_norad_cat_id": 3133,
        "meta_element_set_no": 999,
        "meta_rev_at_epoch": 56892,
        "meta_bstar": 0.00025359784,
        "meta_mean_motion_dot": 1.78e-06,
        "meta_mean_motion_ddot": 0,
        "tle_line1": "1 03133U 68012A   25344.77611420  .00000178  00000+0  25360-3 0  9997",
        "tle_line2": "2 03133  90.0278 273.6332 0073658 174.8207 217.6112 13.51564951568922"
      },
      "geometry": {
        "type": "Point",
        "coordinates": [
          -86.37949722811369,
          26.963012800980326
        ]
      }
    },
    {
      "type": "Feature",
      "properties": {
        "norad_id": 4507,
        "name": "NNSS 19 (TRANSIT 19)",
        "group": "nnss",
        "lat": 1.941751609535478,
        "lon": -125.46750293019763,
        "alt_km": 1013.4954258939879,
        "timestamp": "2025-12-11T07:02:23.998755+00:00",
        "meta_object_name": "NNSS 19 (TRANSIT 19)",
        "meta_object_id": "1970-067A",
        "meta_epoch": "2025-12-10T06:09:04.713984",
        "meta_mean_motion": 13.51314209,
        "meta_eccentricity": 0.0170695,
        "meta_inclination": 90.0056,
        "meta_ra_of_asc_node": 234.5321,
        "meta_arg_of_pericenter": 300.6377,
        "meta_mean_anomaly": 57.8039,
        "meta_ephemeris_type": 0,
        "meta_classification_type": "U",
        "meta_norad_cat_id": 4507,
        "meta_element_set_no": 999,
        "meta_rev_at_epoch": 72188,
        "meta_bstar": 0.00026981,
        "meta_mean_motion_dot": 1.99e-06,
        "meta_mean_motion_ddot": 0,
        "tle_line1": "1 04507U 70067A   25344.25630456  .00000199  00000+0  26981-3 0  9992",
        "tle_line2": "2 04507  90.0056 234.5321 0170695 300.6377  57.8039 13.51314209721889"
      },
      "geometry": {
        "type": "Point",
        "coordinates": [
          -125.46750293019763,
          1.941751609535478
        ]
      }
    },
    {
      "type": "Feature",
      "properties": {
        "norad_id": 6909,
        "name": "NNSS 20 (TRANSIT 20)",
        "group": "nnss",
        "lat": -33.37953988890198,
        "lon": -105.01900968295446,
        "alt_km": 1049.5172212751522,
        "timestamp": "2025-12-11T07:02:23.998766+00:00",
        "meta_object_name": "NNSS 20 (TRANSIT 20)",
        "meta_object_id": "1973-081A",
        "meta_epoch": "2025-12-10T17:11:41.064000",
        "meta_mean_motion": 13.71432763,
        "meta_eccentricity": 0.01566118,
        "meta_inclination": 89.8563,
        "meta_ra_of_asc_node": 255.0844,
        "meta_arg_of_pericenter": 84.3061,
        "meta_mean_anomaly": 277.5936,
        "meta_ephemeris_type": 0,
        "meta_classification_type": "U",
        "meta_norad_cat_id": 6909,
        "meta_element_set_no": 999,
        "meta_rev_at_epoch": 80333,
        "meta_bstar": 0.00033403601,
        "meta_mean_motion_dot": 3.4e-06,
        "meta_mean_motion_ddot": 0,
        "tle_line1": "1 06909U 73081A   25344.71644750  .00000340  00000+0  33404-3 0  9998",
        "tle_line2": "2 06909  89.8563 255.0844 0156611  84.3061 277.5936 13.71432763803338"
      },
      "geometry": {
        "type": "Point",
        "coordinates": [
          -105.01900968295446,
          -33.37953988890198
        ]
      }
    },
    {
      "type": "Feature",
      "properties": {
        "norad_id": 10457,
        "name": "TRANSAT",
        "group": "nnss",
        "lat": 17.48982927523494,
        "lon": 78.75914661284972,
        "alt_km": 1095.3335366500905,
        "timestamp": "2025-12-11T07:02:23.998777+00:00",
        "meta_object_name": "TRANSAT",
        "meta_object_id": "1977-106A",
        "meta_epoch": "2025-12-10T17:29:48.058944",
        "meta_mean_motion": 13.48943195,
        "meta_eccentricity": 0.00252032,
        "meta_inclination": 89.6482,
        "meta_ra_of_asc_node": 78.6682,
        "meta_arg_of_pericenter": 195.3496,
        "meta_mean_anomaly": 323.5194,
        "meta_ephemeris_type": 0,
        "meta_classification_type": "U",
        "meta_norad_cat_id": 10457,
        "meta_element_set_no": 999,
        "meta_rev_at_epoch": 36716,
        "meta_bstar": 0.00019661222,
        "meta_mean_motion_dot": 1.33e-06,
        "meta_mean_motion_ddot": 0,
        "tle_line1": "1 10457U 77106A   25344.72902846  .00000133  00000+0  19661-3 0  9996",
        "tle_line2": "2 10457  89.6482  78.6682 0025203 195.3496 323.5194 13.48943195367169"
      },
      "geometry": {
        "type": "Point",
        "coordinates": [
          78.75914661284972,
          17.48982927523494
        ]
      }
    },
    {
      "type": "Feature",
      "properties": {
        "norad_id": 12458,
        "name": "NOVA 1",
        "group": "nnss",
        "lat": 52.393139594625616,
        "lon": 91.59731409394614,
        "alt_km": 1160.4852467764958,
        "timestamp": "2025-12-11T07:02:23.998788+00:00",
        "meta_object_name": "NOVA 1",
        "meta_object_id": "1981-044A",
        "meta_epoch": "2025-12-10T18:50:58.356960",
        "meta_mean_motion": 13.23278241,
        "meta_eccentricity": 0.00158733,
        "meta_inclination": 89.8524,
        "meta_ra_of_asc_node": 91.4128,
        "meta_arg_of_pericenter": 108.7936,
        "meta_mean_anomaly": 45.5089,
        "meta_ephemeris_type": 0,
        "meta_classification_type": "U",
        "meta_norad_cat_id": 12458,
        "meta_element_set_no": 999,
        "meta_rev_at_epoch": 15160,
        "meta_bstar": 0.00017052083,
        "meta_mean_motion_dot": 8.1e-07,
        "meta_mean_motion_ddot": 0,
        "tle_line1": "1 12458U 81044A   25344.78539765  .00000081  00000+0  17052-3 0  9991",
        "tle_line2": "2 12458  89.8524  91.4128 0015873 108.7936  45.5089 13.23278241151608"
      },
      "geometry": {
        "type": "Point",
        "coordinates": [
          91.59731409394614,
          52.393139594625616
        ]
      }
    }
  ]
}